{
  "type": "FeatureCollection",
  "features": [
    {
      "type": "Feature",
      "properties": {
        "norad_id": 35605,
        "name": "COSMOS 2251 DEB",
        "group": "cosmos-2251-debris",
        "lat": 67.56482104846052,
        "lon": -1.0335330614751161,
        "alt_km": 458.75092859660344,
        "timestamp": "2025-12-22T22:44:21.375533+00:00",
        "meta_object_name": "COSMOS 2251 DEB",
        "meta_object_id": "1993-036AMY",
        "meta_epoch": "2025-12-22T14:36:44.008416",
        "meta_mean_motion": 15.38179315,
        "meta_eccentricity": 0.00228045,
        "meta_inclination": 73.869,
        "meta_ra_of_asc_node": 315.1978,
        "meta_arg_of_pericenter": 235.9327,
        "meta_mean_anomaly": 123.9715,
        "meta_ephemeris_type": 0,
        "meta_classification_type": "U",
        "meta_norad_cat_id": 35605,
        "meta_element_set_no": 999,
        "meta_rev_at_epoch": 66123,
        "meta_bstar": 0.0066900453,
        "meta_mean_motion_dot": 0.00262511,
        "meta_mean_motion_ddot": 0,
        "tle_line1": "1 35605U 93036AMY 25356.60884269  .00262511  00000+0  66900-2 0  9993",
        "tle_line2": "2 35605  73.8690 315.1978 0022804 235.9327 123.9715 15.38179315661234"
      },
      "geometry": {
        "type": "Point",
        "coordinates": [
          -1.0335330614751161,
          67.56482104846052
        ]
      }
    },
    {
      "type": "Feature",
      "properties": {
        "norad_id": 35606,
        "name": "COSMOS 2251 DEB",
        "group": "cosmos-2251-debris",
        "lat": 30.664927184459472,
        "lon": 164.60730048116673,
        "alt_km": 877.8702224008775,
        "timestamp": "2025-12-22T22:44:21.375544+00:00",
        "meta_object_name": "COSMOS 2251 DEB",
        "meta_object_id": "1993-036AMZ",
        "meta_epoch": "2025-12-22T05:51:54.884736",
        "meta_mean_motion": 13.41219039,
        "meta_eccentricity": 0.04568591,
        "meta_inclination": 73.8097,
        "meta_ra_of_asc_node": 355.6464,
        "meta_arg_of_pericenter": 199.9596,
        "meta_mean_anomaly": 158.312,
        "meta_ephemeris_type": 0,
        "meta_classification_type": "U",
        "meta_norad_cat_id": 35606,
        "meta_element_set_no": 999,
        "meta_rev_at_epoch": 61167,
        "meta_bstar": 0.00025296836,
        "meta_mean_motion_dot": 2.37e-06,
        "meta_mean_motion_ddot": 0,
        "tle_line1": "1 35606U 93036AMZ 25356.24438524  .00000237  00000+0  25297-3 0  9993",
        "tle_line2": "2 35606  73.8097 355.6464 0456859 199.9596 158.3120 13.41219039611678"
      },
      "geometry": {
        "type": "Point",
        "coordinates": [
          164.60730048116673,
          30.664927184459472
        ]
      }
    },
    {
      "type": "Feature",
      "properties": {
        "norad_id": 35611,
        "name": "COSMOS 2251 DEB",
        "group": "cosmos-2251-debris",
        "lat": 67.24258925292712,
        "lon": -157.50875376175006,
        "alt_km": 658.1864651514743,
        "timestamp": "2025-12-22T22:44:21.375554+00:00",
        "meta_object_name": "COSMOS 2251 DEB",
        "meta_object_id": "1993-036ANE",
        "meta_epoch": "2025-12-19T11:16:40.848672",
        "meta_mean_motion": 14.73020971,
        "meta_eccentricity": 0.0021353,
        "meta_inclination": 74.0189,
        "meta_ra_of_asc_node": 166.1787,
        "meta_arg_of_pericenter": 238.9125,
        "meta_mean_anomaly": 120.9952,
        "meta_ephemeris_type": 0,
        "meta_classification_type": "U",
        "meta_norad_cat_id": 35611,
        "meta_element_set_no": 999,
        "meta_rev_at_epoch": 87389,
        "meta_bstar": 0.0015718,
        "meta_mean_motion_dot": 0.0001012,
        "meta_mean_motion_ddot": 0,
        "tle_line1": "1 35611U 93036ANE 25353.46991723  .00010120  00000+0  15718-2 0  9993",
        "tle_line2": "2 35611  74.0189 166.1787 0021353 238.9125 120.9952 14.73020971873894"
      },
      "geometry": {
        "type": "Point",
        "coordinates": [
          -157.50875376175006,
          67.24258925292712
        ]
      }
    },
    {
      "type": "Feature",
      "properties": {
        "norad_id": 35614,
        "name": "COSMOS 2251 DEB",
        "group": "cosmos-2251-debris",
        "lat": -23.062651124241754,
        "lon": -59.368140969378075,
        "alt_km": 728.3264005577848,
        "timestamp": "2025-12-22T22:44:21.375565+00:00",
        "meta_object_name": "COSMOS 2251 DEB",
        "meta_object_id": "1993-036ANH",
        "meta_epoch": "2025-12-22T04:50:52.701504",
        "meta_mean_motion": 14.67087782,
        "meta_eccentricity": 0.00751415,
        "meta_inclination": 73.9595,
        "meta_ra_of_asc_node": 309.1128,
        "meta_arg_of_pericenter": 161.1452,
        "meta_mean_anomaly": 199.2529,
        "meta_ephemeris_type": 0,
        "meta_classification_type": "U",
        "meta_norad_cat_id": 35614,
        "meta_element_set_no": 999,
        "meta_rev_at_epoch": 87868,
        "meta_bstar": 0.00075496675,
        "meta_mean_motion_dot": 4.392e-05,
        "meta_mean_motion_ddot": 0,
        "tle_line1": "1 35614U 93036ANH 25356.20199886  .00004392  00000+0  75497-3 0  9996",
        "tle_line2": "2 35614  73.9595 309.1128 0075141 161.1452 199.2529 14.67087782878685"
      },
      "geometry": {
        "type": "Point",
        "coordinates": [
          -59.368140969378075,
          -23.062651124241754
        ]
      }
    },
    {
      "type": "Feature",
      "properties": {
        "norad_id": 35645,
        "name": "COSMOS 2251 DEB",
        "group": "cosmos-2251-debris",
        "lat": -9.169099084753944,
        "lon": 65.9530182321706,
        "alt_km": 772.1156781978925,
        "timestamp": "2025-12-22T22:44:21.375574+00:00",
        "meta_object_name": "COSMOS 2251 DEB",
        "meta_object_id": "1993-036ANL",
        "meta_epoch": "2025-12-20T22:37:16.438368",
        "meta_mean_motion": 14.45688702,
        "meta_eccentricity": 0.0069769,
        "meta_inclination": 73.9649,
        "meta_ra_of_asc_node": 72.3676,
        "meta_arg_of_pericenter": 229.1797,
        "meta_mean_anomaly": 130.3298,
        "meta_ephemeris_type": 0,
        "meta_classification_type": "U",
        "meta_norad_cat_id": 35645,
        "meta_element_set_no": 999,
        "meta_rev_at_epoch": 86890,
        "meta_bstar": 0.0012662,
        "meta_mean_motion_dot": 4.592e-05,
        "meta_mean_motion_ddot": 0,
        "tle_line1": "1 35645U 93036ANL 25354.94255137  .00004592  00000+0  12662-2 0  9997",
        "tle_line2": "2 35645  73.9649  72.3676 0069769 229.1797 130.3298 14.45688702868900"
      },
      "geometry": {
        "type": "Point",
        "coordinates": [
          65.9530182321706,
          -9.169099084753944
        ]
      }
    },
    {
      "type": "Feature",
      "properties": {
        "norad_id": 35646,
        "name": "COSMOS 2251 DEB",
        "group": "cosmos-2251-debris",
        "lat": 19.34087787068703,
        "lon": 45.661861616145934,
        "alt_km": 1306.3152713335194,
        "timestamp": "2025-12-22T22:44:21.375584+00:00",
        "meta_object_name": "COSMOS 2251 DEB",
        "meta_object_id": "1993-036ANM",
        "meta_epoch": "2025-12-20T21:21:16.108128",
        "meta_mean_motion": 13.40831039,
        "meta_eccentricity": 0.0456194,
        "meta_inclination": 73.8716,
        "meta_ra_of_asc_node": 43.0968,
        "meta_arg_of_pericenter": 151.9118,
        "meta_mean_anomaly": 23.6706,
        "meta_ephemeris_type": 0,
        "meta_classification_type": "U",
        "meta_norad_cat_id": 35646,
        "meta_element_set_no": 999,
        "meta_rev_at_epoch": 81967,
        "meta_bstar": 0.00033731,
        "meta_mean_motion_dot": 3.24e-06,
        "meta_mean_motion_ddot": 0,
        "tle_line1": "1 35646U 93036ANM 25354.88976977  .00000324  00000+0  33731-3 0  9993",
        "tle_line2": "2 35646  73.8716  43.0968 0456194 151.9118  23.6706 13.40831039819670"
      },
      "geometry": {
        "type": "Point",
        "coordinates": [
          45.661861616145934,
          19.34087787068703
        ]
      }
    },
    {
      "type": "Feature",
      "properties": {
        "norad_id": 35647,
        "name": "COSMOS 2251 DEB",
        "group": "cosmos-2251-debris",
        "lat": -12.045111693726476,
        "lon": -87.92695035590805,
        "alt_km": 720.6245909906202,
        "timestamp": "2025-12-22T22:44:21.375595+00:00",
        "meta_object_name": "COSMOS 2251 DEB",
        "meta_object_id": "1993-036ANN",
        "meta_epoch": "2025-12-20T12:35:18.566880",
        "meta_mean_motion": 14.43670529,
        "meta_eccentricity": 0.0045979,
        "meta_inclination": 74.0241,
        "meta_ra_of_asc_node": 280.0829,
        "meta_arg_of_pericenter": 17.3675,
        "meta_mean_anomaly": 342.9041,
        "meta_ephemeris_type": 0,
        "meta_classification_type": "U",
        "meta_norad_cat_id": 35647,
        "meta_element_set_no": 999,
        "meta_rev_at_epoch": 67776,
        "meta_bstar": 0.00050731,
        "meta_mean_motion_dot": 1.718e-05,
        "meta_mean_motion_ddot": 0,
        "tle_line1": "1 35647U 93036ANN 25354.52452045  .00001718  00000+0  50731-3 0  9997",
        "tle_line2": "2 35647  74.0241 280.0829 0045979  17.3675 342.9041 14.43670529677764"
      },
      "geometry": {
        "type": "Point",
        "coordinates": [
          -87.92695035590805,
          -12.045111693726476
        ]
      }
    }
  ]
}